[{"OBJECT_NAME":"AFR-1","OBJECT_ID":"2023-084AJ","EPOCH":"2026-03-09T23:02:07.499328","MEAN_MOTION":15.27543824,"ECCENTRICITY":0.00099838,"INCLINATION":97.6099,"RA_OF_ASC_NODE":203.4313,"ARG_OF_PERICENTER":334.9676,"MEAN_ANOMALY":25.1077,"EPHEMERIS_TYPE":0,"CLASSIFICATION_TYPE":"U","NORAD_CAT_ID":56964,"ELEMENT_SET_NO":999,"REV_AT_EPOCH":15207,"BSTAR":0.00024843733,"MEAN_MOTION_DOT":6.624e-5,"MEAN_MOTION_DDOT":0},{"OBJECT_NAME":"STARLINK-32198","OBJECT_ID":"2024-133W","EPOCH":"2026-03-09T21:49:44.612832","MEAN_MOTION":15.30191124,"ECCENTRICITY":0.00012456,"INCLINATION":53.1597,"RA_OF_ASC_NODE":296.0649,"ARG_OF_PERICENTER":76.389,"MEAN_ANOMALY":283.7249,"EPHEMERIS_TYPE":0,"CLASSIFICATION_TYPE":"U","NORAD_CAT_ID":60321,"ELEMENT_SET_NO":999,"REV_AT_EPOCH":9176,"BSTAR":2.2201034e-5,"MEAN_MOTION_DOT":2.98e-6,"MEAN_MOTION_DDOT":0}]
